{
  "type": "FeatureCollection",
  "features": [
    {
      "type": "Feature",
      "properties": {
        "norad_id": 34492,
        "name": "IRIDIUM 33 DEB",
        "group": "iridium-33-debris",
        "lat": 12.533679529923301,
        "lon": -20.363966677484992,
        "alt_km": 831.6850333696011,
        "timestamp": "2025-12-02T07:10:09.501038+00:00",
        "meta_object_name": "IRIDIUM 33 DEB",
        "meta_object_id": "1997-051GH",
        "meta_epoch": "2025-12-01T11:37:20.497728",
        "meta_mean_motion": 14.25192114,
        "meta_eccentricity": 0.01904541,
        "meta_inclination": 86.4698,
        "meta_ra_of_asc_node": 339.1786,
        "meta_arg_of_pericenter": 274.674,
        "meta_mean_anomaly": 239.6935,
        "meta_ephemeris_type": 0,
        "meta_classification_type": "U",
        "meta_norad_cat_id": 34492,
        "meta_element_set_no": 999,
        "meta_rev_at_epoch": 84898,
        "meta_bstar": 0.0079818839,
        "meta_mean_motion_dot": 0.00022727,
        "meta_mean_motion_ddot": 0,
        "tle_line1": "1 34492U 97051GH  25335.48426502  .00022727  00000+0  79819-2 0  9998",
        "tle_line2": "2 34492  86.4698 339.1786 0190454 274.6740 239.6935 14.25192114848989"
      },
      "geometry": {
        "type": "Point",
        "coordinates": [
          -20.363966677484992,
          12.533679529923301
        ]
      }
    },
    {
      "type": "Feature",
      "properties": {
        "norad_id": 34497,
        "name": "IRIDIUM 33 DEB",
        "group": "iridium-33-debris",
        "lat": 3.2912350564426793,
        "lon": -123.35331059601089,
        "alt_km": 858.010861677275,
        "timestamp": "2025-12-02T07:10:09.501048+00:00",
        "meta_object_name": "IRIDIUM 33 DEB",
        "meta_object_id": "1997-051GN",
        "meta_epoch": "2025-12-01T05:14:48.727392",
        "meta_mean_motion": 14.27398963,
        "meta_eccentricity": 0.0080081,
        "meta_inclination": 86.2784,
        "meta_ra_of_asc_node": 57.3223,
        "meta_arg_of_pericenter": 16.9295,
        "meta_mean_anomaly": 12.6117,
        "meta_ephemeris_type": 0,
        "meta_classification_type": "U",
        "meta_norad_cat_id": 34497,
        "meta_element_set_no": 999,
        "meta_rev_at_epoch": 86719,
        "meta_bstar": 0.00069242,
        "meta_mean_motion_dot": 1.774e-05,
        "meta_mean_motion_ddot": 0,
        "tle_line1": "1 34497U 97051GN  25335.21861953  .00001774  00000+0  69242-3 0  9996",
        "tle_line2": "2 34497  86.2784  57.3223 0080081  16.9295  12.6117 14.27398963867196"
      },
      "geometry": {
        "type": "Point",
        "coordinates": [
          -123.35331059601089,
          3.2912350564426793
        ]
      }
    },
    {
      "type": "Feature",
      "properties": {
        "norad_id": 34508,
        "name": "IRIDIUM 33 DEB",
        "group": "iridium-33-debris",
        "lat": -74.35985799734235,
        "lon": 93.959519431679,
        "alt_km": 761.9572930983177,
        "timestamp": "2025-12-02T07:10:09.501059+00:00",
        "meta_object_name": "IRIDIUM 33 DEB",
        "meta_object_id": "1997-051GZ",
        "meta_epoch": "2025-12-01T19:49:48.096768",
        "meta_mean_motion": 14.38250778,
        "meta_eccentricity": 0.006538,
        "meta_inclination": 86.3693,
        "meta_ra_of_asc_node": 107.2683,
        "meta_arg_of_pericenter": 208.4513,
        "meta_mean_anomaly": 151.3111,
        "meta_ephemeris_type": 0,
        "meta_classification_type": "U",
        "meta_norad_cat_id": 34508,
        "meta_element_set_no": 999,
        "meta_rev_at_epoch": 87152,
        "meta_bstar": 0.0017383,
        "meta_mean_motion_dot": 5.435e-05,
        "meta_mean_motion_ddot": 0,
        "tle_line1": "1 34508U 97051GZ  25335.82625112  .00005435  00000+0  17383-2 0  9997",
        "tle_line2": "2 34508  86.3693 107.2683 0065380 208.4513 151.3111 14.38250778871520"
      },
      "geometry": {
        "type": "Point",
        "coordinates": [
          93.959519431679,
          -74.35985799734235
        ]
      }
    },
    {
      "type": "Feature",
      "properties": {
        "norad_id": 34521,
        "name": "IRIDIUM 33 DEB",
        "group": "iridium-33-debris",
        "lat": -65.90761106758298,
        "lon": -136.7205040211273,
        "alt_km": 689.7265451048015,
        "timestamp": "2025-12-02T07:10:09.501070+00:00",
        "meta_object_name": "IRIDIUM 33 DEB",
        "meta_object_id": "1997-051HN",
        "meta_epoch": "2025-12-01T15:16:33.490272",
        "meta_mean_motion": 14.63200196,
        "meta_eccentricity": 0.00012484,
        "meta_inclination": 86.3814,
        "meta_ra_of_asc_node": 35.4349,
        "meta_arg_of_pericenter": 308.361,
        "meta_mean_anomaly": 51.749,
        "meta_ephemeris_type": 0,
        "meta_classification_type": "U",
        "meta_norad_cat_id": 34521,
        "meta_element_set_no": 999,
        "meta_rev_at_epoch": 88310,
        "meta_bstar": 0.00096215239,
        "meta_mean_motion_dot": 4.973e-05,
        "meta_mean_motion_ddot": 0,
        "tle_line1": "1 34521U 97051HN  25335.63649873  .00004973  00000+0  96215-3 0  9999",
        "tle_line2": "2 34521  86.3814  35.4349 0001248 308.3610  51.7490 14.63200196883109"
      },
      "geometry": {
        "type": "Point",
        "coordinates": [
          -136.7205040211273,
          -65.90761106758298
        ]
      }
    },
    {
      "type": "Feature",
      "properties": {
        "norad_id": 34525,
        "name": "IRIDIUM 33 DEB",
        "group": "iridium-33-debris",
        "lat": 68.59172106305842,
        "lon": -138.00901462039604,
        "alt_km": 737.9675972939185,
        "timestamp": "2025-12-02T07:10:09.501082+00:00",
        "meta_object_name": "IRIDIUM 33 DEB",
        "meta_object_id": "1997-051HS",
        "meta_epoch": "2025-12-01T16:16:08.621184",
        "meta_mean_motion": 14.42858751,
        "meta_eccentricity": 0.0006393,
        "meta_inclination": 86.3737,
        "meta_ra_of_asc_node": 51.5644,
        "meta_arg_of_pericenter": 120.5701,
        "meta_mean_anomaly": 7.7229,
        "meta_ephemeris_type": 0,
        "meta_classification_type": "U",
        "meta_norad_cat_id": 34525,
        "meta_element_set_no": 999,
        "meta_rev_at_epoch": 87928,
        "meta_bstar": 0.00042362,
        "meta_mean_motion_dot": 1.433e-05,
        "meta_mean_motion_ddot": 0,
        "tle_line1": "1 34525U 97051HS  25335.67787756  .00001433  00000+0  42362-3 0  9992",
        "tle_line2": "2 34525  86.3737  51.5644 0006393 120.5701   7.7229 14.42858751879283"
      },
      "geometry": {
        "type": "Point",
        "coordinates": [
          -138.00901462039604,
          68.59172106305842
        ]
      }
    },
    {
      "type": "Feature",
      "properties": {
        "norad_id": 34529,
        "name": "IRIDIUM 33 DEB",
        "group": "iridium-33-debris",
        "lat": 86.14874742223662,
        "lon": 149.07895098334245,
        "alt_km": 750.4630870614792,
        "timestamp": "2025-12-02T07:10:09.501092+00:00",
        "meta_object_name": "IRIDIUM 33 DEB",
        "meta_object_id": "1997-051HW",
        "meta_epoch": "2025-12-01T14:04:36.035616",
        "meta_mean_motion": 14.40601012,
        "meta_eccentricity": 0.00035034,
        "meta_inclination": 86.3651,
        "meta_ra_of_asc_node": 40.1656,
        "meta_arg_of_pericenter": 218.3703,
        "meta_mean_anomaly": 141.7248,
        "meta_ephemeris_type": 0,
        "meta_classification_type": "U",
        "meta_norad_cat_id": 34529,
        "meta_element_set_no": 999,
        "meta_rev_at_epoch": 87981,
        "meta_bstar": 0.00013685472,
        "meta_mean_motion_dot": 4.56e-06,
        "meta_mean_motion_ddot": 0,
        "tle_line1": "1 34529U 97051HW  25335.58652819  .00000456  00000+0  13685-3 0  9997",
        "tle_line2": "2 34529  86.3651  40.1656 0003503 218.3703 141.7248 14.40601012879810"
      },
      "geometry": {
        "type": "Point",
        "coordinates": [
          149.07895098334245,
          86.14874742223662
        ]
      }
    },
    {
      "type": "Feature",
      "properties": {
        "norad_id": 34538,
        "name": "IRIDIUM 33 DEB",
        "group": "iridium-33-debris",
        "lat": -33.4771529316788,
        "lon": -167.40394165838876,
        "alt_km": 777.3903057048838,
        "timestamp": "2025-12-02T07:10:09.501103+00:00",
        "meta_object_name": "IRIDIUM 33 DEB",
        "meta_object_id": "1997-051JF",
        "meta_epoch": "2025-12-01T03:50:51.400896",
        "meta_mean_motion": 14.42539104,
        "meta_eccentricity": 0.00342662,
        "meta_inclination": 86.2788,
        "meta_ra_of_asc_node": 10.6274,
        "meta_arg_of_pericenter": 6.7728,
        "meta_mean_anomaly": 58.7322,
        "meta_ephemeris_type": 0,
        "meta_classification_type": "U",
        "meta_norad_cat_id": 34538,
        "meta_element_set_no": 999,
        "meta_rev_at_epoch": 87589,
        "meta_bstar": 0.00093333061,
        "meta_mean_motion_dot": 3.135e-05,
        "meta_mean_motion_ddot": 0,
        "tle_line1": "1 34538U 97051JF  25335.16031714  .00003135  00000+0  93333-3 0  9991",
        "tle_line2": "2 34538  86.2788  10.6274 0034266   6.7728  58.7322 14.42539104875892"
      },
      "geometry": {
        "type": "Point",
        "coordinates": [
          -167.40394165838876,
          -33.4771529316788
        ]
      }
    }
  ]
}